{
  "norad_id": 53763,
  "name": "YAOGAN-35 05C",
  "history": [
    {
      "epoch": "2026-04-16T21:08:46.759200Z",
      "apogee_km": 499.2009595487825,
      "perigee_km": 496.4574490332707,
      "latitude_deg": 1.579395024208129e-05,
      "longitude_deg": -139.59235458298744,
      "height_km": 495.79455547342485,
      "semi_major_axis_km": 6875.966204291027,
      "eccentricity": 0.0001995,
      "inclination_deg": 34.9928,
      "raan_deg": 22.6249,
      "arg_perigee_deg": 46.7465,
      "mean_anomaly_deg": 313.3416,
      "mean_motion_rev_day": 15.22657275
    },
    {
      "epoch": "2026-04-17T22:19:25.888800Z",
      "apogee_km": 499.0898886070654,
      "perigee_km": 496.500687544667,
      "latitude_deg": -1.7940981417919477e-06,
      "longitude_deg": -164.88362292982782,
      "height_km": 496.05199981834636,
      "semi_major_axis_km": 6875.932288075866,
      "eccentricity": 0.00018828,
      "inclination_deg": 34.993,
      "raan_deg": 16.0307,
      "arg_perigee_deg": 59.9456,
      "mean_anomaly_deg": 300.1445,
      "mean_motion_rev_day": 15.22668541
    },
    {
      "epoch": "2026-04-18T20:21:14.473152Z",
      "apogee_km": 498.99708563361673,
      "perigee_km": 496.5258877175065,
      "latitude_deg": 1.6392793340904253e-05,
      "longitude_deg": -142.01077843691814,
      "height_km": 496.27602223119897,
      "semi_major_axis_km": 6875.898486675562,
      "eccentricity": 0.0001797,
      "inclination_deg": 34.9932,
      "raan_deg": 10.2607,
      "arg_perigee_deg": 71.5807,
      "mean_anomaly_deg": 288.5103,
      "mean_motion_rev_day": 15.22679769
    },
    {
      "epoch": "2026-04-19T19:57:27.252288Z",
      "apogee_km": 498.9256126938062,
      "perigee_km": 496.5176869946299,
      "latitude_deg": -1.7514689571377604e-05,
      "longitude_deg": -143.21563739767143,
      "height_km": 496.5223518515124,
      "semi_major_axis_km": 6875.858649844217,
      "eccentricity": 0.0001751,
      "inclination_deg": 34.9932,
      "raan_deg": 4.0785,
      "arg_perigee_deg": 85.0382,
      "mean_anomaly_deg": 275.0532,
      "mean_motion_rev_day": 15.22693002
    },
    {
      "epoch": "2026-04-20T03:49:31.360800Z",
      "apogee_km": 498.89545084780457,
      "perigee_km": 496.5249337697851,
      "latitude_deg": 2.2643282460788645e-06,
      "longitude_deg": 96.38335194694919,
      "height_km": 496.6148709861243,
      "semi_major_axis_km": 6875.847192308795,
      "eccentricity": 0.00017238,
      "inclination_deg": 34.9932,
      "raan_deg": 2.0177,
      "arg_perigee_deg": 89.9928,
      "mean_anomaly_deg": 270.0984,
      "mean_motion_rev_day": 15.22696808
    }
  ]
}